[{"OBJECT_NAME":"JILIN-1 GAOFEN 03D47","OBJECT_ID":"2022-167L","EPOCH":"2026-03-09T22:56:46.924224","MEAN_MOTION":15.31686941,"ECCENTRICITY":0.00089304,"INCLINATION":97.6835,"RA_OF_ASC_NODE":234.6581,"ARG_OF_PERICENTER":110.4031,"MEAN_ANOMALY":249.8169,"EPHEMERIS_TYPE":0,"CLASSIFICATION_TYPE":"U","NORAD_CAT_ID":54692,"ELEMENT_SET_NO":999,"REV_AT_EPOCH":18014,"BSTAR":0.00047294748,"MEAN_MOTION_DOT":0.00014417,"MEAN_MOTION_DDOT":0},{"OBJECT_NAME":"STARLINK-35368","OBJECT_ID":"2025-221H","EPOCH":"2026-03-09T06:34:47.184672","MEAN_MOTION":15.30197286,"ECCENTRICITY":0.00013179,"INCLINATION":53.1586,"RA_OF_ASC_NODE":90.7083,"ARG_OF_PERICENTER":62.0331,"MEAN_ANOMALY":298.0803,"EPHEMERIS_TYPE":0,"CLASSIFICATION_TYPE":"U","NORAD_CAT_ID":65830,"ELEMENT_SET_NO":999,"REV_AT_EPOCH":2597,"BSTAR":0.0008794841,"MEAN_MOTION_DOT":0.00025777,"MEAN_MOTION_DDOT":0}]
